norad_id,name,regime,epoch,line1,line2,inclination,eccentricity,mean_motion,raan,arg_pericenter,mean_anomaly
28082,CHINASAT 20,EGO,13247.98101701,1 28082U 03052A   13247.98101701 -.00000335  00000-0  10000-3 0  9901\,2 28082 000.7178 078.3963 0003521 132.6173 229.6536 01.00273360 35974,0.7178,0.0003521,1.0027336,78.3963,132.6173,229.6536
28082,CHINASAT 20,EGO,13248.99736691,1 28082U 03052A   13248.99736691 -.00000334  00000-0  10000-3 0  9915\,2 28082 000.7198 078.3910 0003468 133.4418 235.7239 01.00272789 35982,0.7198,0.0003468,1.00272789,78.391,133.4418,235.7239
28082,CHINASAT 20,EGO,13250.69240431,1 28082U 03052A   13250.69240431 -.00000333  00000-0  10000-3 0  9927\,2 28082 000.7232 078.3743 0003344 133.5994 127.4666 01.00271878 35998,0.7232,0.0003344,1.00271878,78.3743,133.5994,127.4666
28082,CHINASAT 20,EGO,13251.75360204,1 28082U 03052A   13251.75360204 -.00000334  00000-0  10000-3 0  9938\,2 28082 000.7254 078.3620 0003302 133.5133 150.6394 01.00271328 36015,0.7254,0.0003302,1.00271328,78.362,133.5133,150.6394
28082,CHINASAT 20,EGO,13253.59985167,1 28082U 03052A   13253.59985167 -.00000337  00000-0  10000-3 0  9947\,2 28082 000.7292 078.3376 0003268 133.5359 097.1012 01.00270392 36029,0.7292,0.0003268,1.00270392,78.3376,133.5359,97.1012
28082,CHINASAT 20,EGO,13254.64070796,1 28082U 03052A   13254.64070796 -.00000340  00000-0  10000-3 0  9952\,2 28082 000.7314 078.3216 0003282 134.5112 111.8664 01.00269840 36035,0.7314,0.0003282,1.0026984,78.3216,134.5112,111.8664
28082,CHINASAT 20,EGO,13254.93995466,1 28082U 03052A   13254.93995466 -.00000341  00000-0  10000-3 0  9966\,2 28082 000.7319 078.3247 0003418 133.3786 221.0079 01.00269132 36048,0.7319,0.0003418,1.00269132,78.3247,133.3786,221.0079
28082,CHINASAT 20,EGO,13255.95444610,1 28082U 03052A   13255.95444610 -.00000344  00000-0  10000-3 0  9973\,2 28082 000.7341 078.3110 0003469 133.1458 227.4586 01.00268606 36051,0.7341,0.0003469,1.00268606,78.311,133.1458,227.4586
28082,CHINASAT 20,EGO,13256.96892691,1 28082U 03052A   13256.96892691 -.00000347  00000-0  10000-3 0  9985\,2 28082 000.7362 078.2979 0003541 133.5017 233.3139 01.00268083 36062,0.7362,0.0003541,1.00268083,78.2979,133.5017,233.3139
28082,CHINASAT 20,EGO,13258.50383969,1 28082U 03052A   13258.50383969 -.00000351  00000-0  10000-3 0  9996\,2 28082 000.7395 078.2842 0003585 133.7749 067.1095 01.00267287 36079,0.7395,0.0003585,1.00267287,78.2842,133.7749,67.1095
28082,CHINASAT 20,EGO,13259.52845561,1 28082U 03052A   13259.52845561 -.00000352  00000-0  10000-3 0    04\,2 28082 000.7416 078.2760 0003634 133.3467 077.3990 01.00266797 36083,0.7416,0.0003634,1.00266797,78.276,133.3467,77.399
28082,CHINASAT 20,EGO,13259.94715564,1 28082U 03052A   13259.94715564  .00000000  00000-0  10000-3 0    75\,2 28082 000.7428 078.2407 0003441 129.5641 232.3902 01.00264783 36091,0.7428,0.0003441,1.00264783,78.2407,129.5641,232.3902
28082,CHINASAT 20,EGO,13259.94722964,1 28082U 03052A   13259.94722964  .00000000  00000-0  10000-3 0    44\,2 28082 000.7430 078.2649 0003273 130.8264 231.1254 01.00264294 36095,0.743,0.0003273,1.00264294,78.2649,130.8264,231.1254
28082,CHINASAT 20,EGO,13259.94726755,1 28082U 03052A   13259.94726755  .00000000  00000-0  10000-3 0    57\,2 28082 000.7435 078.2791 0003371 128.0194 233.9330 01.00264423 36097,0.7435,0.0003371,1.00264423,78.2791,128.0194,233.933
28082,CHINASAT 20,EGO,13260.87967730,1 28082U 03052A   13260.87967730 -.00000354  00000-0  10000-3 0    10\,2 28082 000.7465 078.2900 0004127 147.6922 190.8475 01.00277373 36109,0.7465,0.0004127,1.00277373,78.29,147.6922,190.8475
28082,CHINASAT 20,EGO,13261.94199352,1 28082U 03052A   13261.94199352  .00000000  00000-0  10000-3 0    35\,2 28082 000.7469 078.2096 0003202 134.0689 227.9891 01.00263151 36116,0.7469,0.0003202,1.00263151,78.2096,134.0689,227.9891
28082,CHINASAT 20,EGO,13261.97235355,1 28082U 03052A   13261.97235355 -.00000353  00000-0  10000-3 0    23\,2 28082 000.7489 078.2838 0004180 148.1933 224.8121 01.00276748 36114,0.7489,0.000418,1.00276748,78.2838,148.1933,224.8121
28082,CHINASAT 20,EGO,13263.88831513,1 28082U 03052A   13263.88831513 -.00000350  00000-0  10000-3 0    75\,2 28082 000.7528 078.2627 0004289 149.2696 195.4237 01.00276095 36130,0.7528,0.0004289,1.00276095,78.2627,149.2696,195.4237
28082,CHINASAT 20,EGO,13264.95037380,1 28082U 03052A   13264.95037380 -.00000348  00000-0  10000-3 0    82\,2 28082 000.7550 078.2521 0004352 149.9686 218.1387 01.00275678 36141,0.755,0.0004352,1.00275678,78.2521,149.9686,218.1387
28082,CHINASAT 20,EGO,13265.96377035,1 28082U 03052A   13265.96377035 -.00000346  00000-0  10000-3 0    97\,2 28082 000.7571 078.2432 0004387 150.4534 223.4971 01.00275217 36150,0.7571,0.0004387,1.00275217,78.2432,150.4534,223.4971
28082,CHINASAT 20,EGO,13266.98707499,1 28082U 03052A   13266.98707499 -.00000345  00000-0  10000-3 0   102\,2 28082 000.7592 078.2293 0004421 150.7547 232.6192 01.00274755 36168,0.7592,0.0004421,1.00274755,78.2293,150.7547,232.6192
28082,CHINASAT 20,EGO,13268.59321770,1 28082U 03052A   13268.59321770 -.00000343  00000-0  10000-3 0   114\,2 28082 000.7626 078.2091 0004552 152.1248 091.0790 01.00274105 36172,0.7626,0.0004552,1.00274105,78.2091,152.1248,91.079
28082,CHINASAT 20,EGO,13268.92091177,1 28082U 03052A   13268.92091177  .00000000  00000-0  10000-3 0   126\,2 28082 000.7630 078.2130 0004639 153.5586 207.9363 01.00270985 36184,0.763,0.0004639,1.00270985,78.213,153.5586,207.9363
28082,CHINASAT 20,EGO,13269.88550024,1 28082U 03052A   13269.88550024 -.00000341  00000-0  10000-3 0   122\,2 28082 000.7653 078.1935 0004589 153.0369 196.6878 01.00273568 36195,0.7653,0.0004589,1.00273568,78.1935,153.0369,196.6878
28082,CHINASAT 20,EGO,13270.96359513,1 28082U 03052A   13270.96359513 -.00000340  00000-0  10000-3 0   133\,2 28082 000.7675 078.1841 0004674 154.1351 224.7821 01.00273133 36204,0.7675,0.0004674,1.00273133,78.1841,154.1351,224.7821
28082,CHINASAT 20,EGO,13272.49181410,1 28082U 03052A   13272.49181410 -.00000337  00000-0  10000-3 0   149\,2 28082 000.7706 078.1675 0004812 155.4217 055.1820 01.00272465 36216,0.7706,0.0004812,1.00272465,78.1675,155.4217,55.182
28082,CHINASAT 20,EGO,13273.88244707,1 28082U 03052A   13273.88244707 -.00000335  00000-0  10000-3 0   151\,2 28082 000.7734 078.1540 0004821 156.0212 196.5963 01.00271850 36237,0.7734,0.0004821,1.0027185,78.154,156.0212,196.5963
28082,CHINASAT 20,EGO,13274.90318794,1 28082U 03052A   13274.90318794 -.00000333  00000-0  10000-3 0   162\,2 28082 000.7755 078.1432 0004817 156.3773 204.7228 01.00271383 36248,0.7755,0.0004817,1.00271383,78.1432,156.3773,204.7228
28082,CHINASAT 20,EGO,13275.90240806,1 28082U 03052A   13275.90240806  .00000000  00000-0  10000-3 0   183\,2 28082 000.7772 078.1404 0004778 156.3251 205.4758 01.00267767 36251,0.7772,0.0004778,1.00267767,78.1404,156.3251,205.4758
28082,CHINASAT 20,EGO,13275.96680634,1 28082U 03052A   13275.96680634 -.00000331  00000-0  10000-3 0   173\,2 28082 000.7776 078.1328 0004874 157.4969 227.5596 01.00270860 36258,0.7776,0.0004874,1.0027086,78.1328,157.4969,227.5596
28082,CHINASAT 20,EGO,13277.51127553,1 28082U 03052A   13277.51127553 -.00000329  00000-0  10000-3 0   180\,2 28082 000.7808 078.1152 0004844 158.3634 064.2325 01.00270110 36260,0.7808,0.0004844,1.0027011,78.1152,158.3634,64.2325
28082,CHINASAT 20,EGO,13278.88715097,1 28082U 03052A   13278.88715097 -.00000329  00000-0  10000-3 0   198\,2 28082 000.7836 078.1003 0004812 159.2419 200.0265 01.00269400 36287,0.7836,0.0004812,1.002694,78.1003,159.2419,200.0265
28082,CHINASAT 20,EGO,13279.90318081,1 28082U 03052A   13279.90318081 -.00000330  00000-0  10000-3 0   208\,2 28082 000.7857 078.0876 0004806 159.4994 206.5416 01.00268881 36292,0.7857,0.0004806,1.00268881,78.0876,159.4994,206.5416
28082,CHINASAT 20,EGO,13280.91705597,1 28082U 03052A   13280.91705597 -.00000332  00000-0  10000-3 0   216\,2 28082 000.7878 078.0276 0004911 158.5987 213.4854 01.00268426 36308,0.7878,0.0004911,1.00268426,78.0276,158.5987,213.4854
28082,CHINASAT 20,EGO,13282.42384059,1 28082U 03052A   13282.42384059 -.00000336  00000-0  10000-3 0   225\,2 28082 000.7910 078.0609 0004867 158.8789 037.0758 01.00267676 36318,0.791,0.0004867,1.00267676,78.0609,158.8789,37.0758
28082,CHINASAT 20,EGO,13282.64348675,1 28082U 03052A   13282.64348675 -.00000336  00000-0  10000-3 0   234\,2 28082 000.7915 078.0556 0004709 158.2794 116.9641 01.00267513 36317,0.7915,0.0004709,1.00267513,78.0556,158.2794,116.9641
28082,CHINASAT 20,EGO,13282.88130196,1 28082U 03052A   13282.88130196  .00000000  00000-0  10000-3 0   245\,2 28082 000.7917 078.0635 0004760 158.3952 202.6811 01.00264308 36323,0.7917,0.000476,1.00264308,78.0635,158.3952,202.6811
28082,CHINASAT 20,EGO,13283.89229419,1 28082U 03052A   13283.89229419 -.00000340  00000-0  10000-3 0   242\,2 28082 000.7942 078.0452 0004781 158.1537 207.8766 01.00266867 36337,0.7942,0.0004781,1.00266867,78.0452,158.1537,207.8766
28082,CHINASAT 20,EGO,13287.65265269,1 28082U 03052A   13287.65265269 -.00000348  00000-0  10000-3 0   263\,2 28082 000.8038 078.0829 0004666 163.7655 119.6809 01.00275227 36379,0.8038,0.0004666,1.00275227,78.0829,163.7655,119.6809
28082,CHINASAT 20,EGO,13288.84777285,1 28082U 03052A   13288.84777285 -.00000347  00000-0  10000-3 0   271\,2 28082 000.8063 078.0810 0004750 164.6890 190.1928 01.00274686 36387,0.8063,0.000475,1.00274686,78.081,164.689,190.1928
28082,CHINASAT 20,EGO,13289.96244700,1 28082U 03052A   13289.96244700 -.00000345  00000-0  10000-3 0   285\,2 28082 000.8087 078.0738 0004893 166.3627 230.9169 01.00274212 36393,0.8087,0.0004893,1.00274212,78.0738,166.3627,230.9169
28082,CHINASAT 20,EGO,13290.98815713,1 28082U 03052A   13290.98815713 -.00000343  00000-0  10000-3 0   296\,2 28082 000.8108 078.0609 0005060 167.1919 240.3762 01.00273887 36407,0.8108,0.000506,1.00273887,78.0609,167.1919,240.3762
